*******************************************************************************
Ephemeris / WWW_USER Mon Mar 24 07:22:08 2025 Pasadena, USA      / Horizons    
*******************************************************************************
Target body name: (2018 PM20)                     {source: JPL#2}
Center body name: Earth (399)                     {source: DE441}
Center-site name: Mauna Kea
*******************************************************************************
Start time      : A.D. 2018-Oct-22 04:03:00.0000 UT      
Stop  time      : A.D. 2018-Oct-22 16:09:00.0000 UT      
Step-size       : 1 minutes
*******************************************************************************
Target pole/equ : undefined
Target radii    : undefined                                                    
Center geodetic : 204.5278, 19.8260847, 4.21024   {E-lon(deg),Lat(deg),Alt(km)}
Center cylindric: 204.5278, 6006.35451, 2151.0229 {E-lon(deg),Dxy(km),Dz(km)}
Center pole/equ : ITRF93                          {East-longitude positive}
Center radii    : 6378.137, 6378.137, 6356.752 km {Equator_a, b, pole_c}       
Target primary  : Sun
Vis. interferer : MOON (R_eq= 1737.400) km        {source: DE441}
Rel. light bend : Sun                             {source: DE441}
Rel. lght bnd GM: 1.3271E+11 km^3/s^2                                          
Small-body perts: Yes                             {source: SB441-N16}
Atmos refraction: NO (AIRLESS)
RA format       : HMS
Time format     : CAL 
Calendar mode   : Mixed Julian/Gregorian
RTS-only print  : NO       
EOP file        : eop.250321.p250617                                           
EOP coverage    : DATA-BASED 1962-JAN-20 TO 2025-MAR-21. PREDICTS-> 2025-JUN-16
Units conversion: 1 au= 149597870.700 km, c= 299792.458 km/s, 1 day= 86400.0 s 
Table cut-offs 1: Elevation (-90.0deg=NO ),Airmass (>38.000=NO), Daylight (YES)
Table cut-offs 2: Solar elongation (  0.0,180.0=NO ),Local Hour Angle( 0.0=NO )
Table cut-offs 3: RA/DEC angular rate (     0.0=NO )                           
*******************************************************************************
Initial IAU76/J2000 heliocentric ecliptic osculating elements (au, days, deg.):
  EPOCH=  2458343.5 ! 2018-Aug-13.00 (TDB)         Residual RMS= .089003       
   EC= .5103595829140648   QR= .9783824475456468   TP= 2458372.5495769856      
   OM= 141.729241004527    W=  213.3086535448706   IN= 3.923256746335003       
  Equivalent ICRF heliocentric cartesian coordinates (au, au/d):
   X= 8.000585561647119E-01  Y=-6.125483166279821E-01  Z=-2.634816273742420E-01
  VX= 9.656077190407949E-03 VY= 1.708944028933422E-02 VZ= 5.904161592396531E-03
Asteroid physical parameters (km, seconds, rotational period in hours):        
   GM= n.a.                RAD= n.a.               ROTPER= n.a.                
   H= 26.3                 G= .150                 B-V= n.a.                   
                           ALBEDO= n.a.            STYP= n.a.                  
*******************************************************************************
 Date__(UT)__HR:MN     R.A._________(ICRF)_________DEC
******************************************************
$$SOE
 2018-Oct-22 10:12  m  06 56 00.346574 +07 41 59.77637
 2018-Oct-22 10:13  m  06 56 00.339739 +07 41 59.86402
 2018-Oct-22 10:14  m  06 56 00.332866 +07 41 59.95165
 2018-Oct-22 10:15  m  06 56 00.325956 +07 42 00.03926
 2018-Oct-22 10:16  m  06 56 00.319008 +07 42 00.12686
 2018-Oct-22 10:17  m  06 56 00.312023 +07 42 00.21444
 2018-Oct-22 10:18  m  06 56 00.304999 +07 42 00.30200
 2018-Oct-22 10:19  m  06 56 00.297939 +07 42 00.38955
 2018-Oct-22 10:20  m  06 56 00.290840 +07 42 00.47708
 2018-Oct-22 10:21  m  06 56 00.283704 +07 42 00.56459
 2018-Oct-22 10:22  m  06 56 00.276531 +07 42 00.65208
 2018-Oct-22 10:23  m  06 56 00.269321 +07 42 00.73955
 2018-Oct-22 10:24  m  06 56 00.262073 +07 42 00.82701
 2018-Oct-22 10:25  m  06 56 00.254787 +07 42 00.91444
 2018-Oct-22 10:26  m  06 56 00.247465 +07 42 01.00186
 2018-Oct-22 10:27  m  06 56 00.240105 +07 42 01.08925
 2018-Oct-22 10:28  m  06 56 00.232708 +07 42 01.17663
 2018-Oct-22 10:29  m  06 56 00.225274 +07 42 01.26398
 2018-Oct-22 10:30  m  06 56 00.217803 +07 42 01.35131
 2018-Oct-22 10:31  m  06 56 00.210295 +07 42 01.43862
 2018-Oct-22 10:32  m  06 56 00.202750 +07 42 01.52591
 2018-Oct-22 10:33  m  06 56 00.195169 +07 42 01.61318
 2018-Oct-22 10:34  m  06 56 00.187550 +07 42 01.70043
 2018-Oct-22 10:35  m  06 56 00.179895 +07 42 01.78765
 2018-Oct-22 10:36  m  06 56 00.172203 +07 42 01.87485
 2018-Oct-22 10:37  m  06 56 00.164474 +07 42 01.96203
 2018-Oct-22 10:38  m  06 56 00.156708 +07 42 02.04919
 2018-Oct-22 10:39  m  06 56 00.148906 +07 42 02.13632
 2018-Oct-22 10:40  m  06 56 00.141068 +07 42 02.22342
 2018-Oct-22 10:41  m  06 56 00.133193 +07 42 02.31051
 2018-Oct-22 10:42  m  06 56 00.125282 +07 42 02.39756
 2018-Oct-22 10:43  m  06 56 00.117335 +07 42 02.48460
 2018-Oct-22 10:44  m  06 56 00.109351 +07 42 02.57160
 2018-Oct-22 10:45  m  06 56 00.101331 +07 42 02.65859
 2018-Oct-22 10:46  m  06 56 00.093275 +07 42 02.74554
 2018-Oct-22 10:47  m  06 56 00.085183 +07 42 02.83247
 2018-Oct-22 10:48  m  06 56 00.077055 +07 42 02.91938
 2018-Oct-22 10:49  m  06 56 00.068890 +07 42 03.00626
 2018-Oct-22 10:50  m  06 56 00.060691 +07 42 03.09311
 2018-Oct-22 10:51  m  06 56 00.052455 +07 42 03.17993
 2018-Oct-22 10:52  m  06 56 00.044183 +07 42 03.26672
 2018-Oct-22 10:53  m  06 56 00.035876 +07 42 03.35349
 2018-Oct-22 10:54  m  06 56 00.027534 +07 42 03.44023
 2018-Oct-22 10:55  m  06 56 00.019155 +07 42 03.52694
 2018-Oct-22 10:56  m  06 56 00.010742 +07 42 03.61363
 2018-Oct-22 10:57  m  06 56 00.002292 +07 42 03.70028
 2018-Oct-22 10:58  m  06 55 59.993808 +07 42 03.78690
 2018-Oct-22 10:59  m  06 55 59.985288 +07 42 03.87350
 2018-Oct-22 11:00  m  06 55 59.976733 +07 42 03.96006
 2018-Oct-22 11:01  m  06 55 59.968144 +07 42 04.04660
 2018-Oct-22 11:02  m  06 55 59.959519 +07 42 04.13310
 2018-Oct-22 11:03  m  06 55 59.950859 +07 42 04.21958
 2018-Oct-22 11:04  m  06 55 59.942164 +07 42 04.30602
 2018-Oct-22 11:05  m  06 55 59.933434 +07 42 04.39243
 2018-Oct-22 11:06  m  06 55 59.924670 +07 42 04.47881
 2018-Oct-22 11:07  m  06 55 59.915871 +07 42 04.56516
 2018-Oct-22 11:08  m  06 55 59.907037 +07 42 04.65147
 2018-Oct-22 11:09  m  06 55 59.898169 +07 42 04.73775
 2018-Oct-22 11:10  m  06 55 59.889266 +07 42 04.82400
 2018-Oct-22 11:11  m  06 55 59.880329 +07 42 04.91022
 2018-Oct-22 11:12  m  06 55 59.871358 +07 42 04.99641
 2018-Oct-22 11:13  m  06 55 59.862353 +07 42 05.08256
 2018-Oct-22 11:14  m  06 55 59.853313 +07 42 05.16867
 2018-Oct-22 11:15  m  06 55 59.844240 +07 42 05.25475
 2018-Oct-22 11:16  m  06 55 59.835132 +07 42 05.34080
 2018-Oct-22 11:17  m  06 55 59.825991 +07 42 05.42681
 2018-Oct-22 11:18  m  06 55 59.816815 +07 42 05.51279
 2018-Oct-22 11:19  m  06 55 59.807607 +07 42 05.59874
 2018-Oct-22 11:20  m  06 55 59.798364 +07 42 05.68464
 2018-Oct-22 11:21  m  06 55 59.789088 +07 42 05.77051
 2018-Oct-22 11:22  m  06 55 59.779779 +07 42 05.85635
 2018-Oct-22 11:23  m  06 55 59.770436 +07 42 05.94215
 2018-Oct-22 11:24  m  06 55 59.761060 +07 42 06.02791
 2018-Oct-22 11:25  m  06 55 59.751651 +07 42 06.11364
 2018-Oct-22 11:26  m  06 55 59.742208 +07 42 06.19932
 2018-Oct-22 11:27  m  06 55 59.732733 +07 42 06.28497
 2018-Oct-22 11:28  m  06 55 59.723224 +07 42 06.37059
 2018-Oct-22 11:29  m  06 55 59.713683 +07 42 06.45616
 2018-Oct-22 11:30  m  06 55 59.704109 +07 42 06.54170
 2018-Oct-22 11:31  m  06 55 59.694503 +07 42 06.62720
 2018-Oct-22 11:32  m  06 55 59.684864 +07 42 06.71266
 2018-Oct-22 11:33  m  06 55 59.675192 +07 42 06.79808
 2018-Oct-22 11:34  m  06 55 59.665488 +07 42 06.88346
 2018-Oct-22 11:35  m  06 55 59.655752 +07 42 06.96880
 2018-Oct-22 11:36  m  06 55 59.645984 +07 42 07.05410
 2018-Oct-22 11:37  m  06 55 59.636183 +07 42 07.13936
 2018-Oct-22 11:38  m  06 55 59.626351 +07 42 07.22458
 2018-Oct-22 11:39  m  06 55 59.616486 +07 42 07.30976
 2018-Oct-22 11:40  m  06 55 59.606590 +07 42 07.39490
 2018-Oct-22 11:41  m  06 55 59.596662 +07 42 07.48000
 2018-Oct-22 11:42  m  06 55 59.586702 +07 42 07.56506
 2018-Oct-22 11:43  m  06 55 59.576711 +07 42 07.65007
 2018-Oct-22 11:44  m  06 55 59.566689 +07 42 07.73505
 2018-Oct-22 11:45  m  06 55 59.556635 +07 42 07.81998
 2018-Oct-22 11:46  m  06 55 59.546550 +07 42 07.90487
 2018-Oct-22 11:47  m  06 55 59.536434 +07 42 07.98971
 2018-Oct-22 11:48  m  06 55 59.526287 +07 42 08.07451
 2018-Oct-22 11:49  m  06 55 59.516109 +07 42 08.15927
 2018-Oct-22 11:50  m  06 55 59.505900 +07 42 08.24399
 2018-Oct-22 11:51  m  06 55 59.495660 +07 42 08.32866
 2018-Oct-22 11:52  m  06 55 59.485390 +07 42 08.41329
 2018-Oct-22 11:53  m  06 55 59.475089 +07 42 08.49788
 2018-Oct-22 11:54  m  06 55 59.464758 +07 42 08.58242
 2018-Oct-22 11:55  m  06 55 59.454396 +07 42 08.66691
 2018-Oct-22 11:56  m  06 55 59.444005 +07 42 08.75136
 2018-Oct-22 11:57  m  06 55 59.433583 +07 42 08.83577
 2018-Oct-22 11:58  m  06 55 59.423131 +07 42 08.92013
 2018-Oct-22 11:59  m  06 55 59.412650 +07 42 09.00444
 2018-Oct-22 12:00  m  06 55 59.402138 +07 42 09.08871
 2018-Oct-22 12:01  m  06 55 59.391597 +07 42 09.17293
 2018-Oct-22 12:02  m  06 55 59.381027 +07 42 09.25710
 2018-Oct-22 12:03  m  06 55 59.370427 +07 42 09.34123
 2018-Oct-22 12:04  m  06 55 59.359797 +07 42 09.42532
 2018-Oct-22 12:05  m  06 55 59.349139 +07 42 09.50935
 2018-Oct-22 12:06  m  06 55 59.338451 +07 42 09.59334
 2018-Oct-22 12:07  m  06 55 59.327734 +07 42 09.67728
 2018-Oct-22 12:08  m  06 55 59.316989 +07 42 09.76117
 2018-Oct-22 12:09  m  06 55 59.306214 +07 42 09.84501
 2018-Oct-22 12:10  m  06 55 59.295411 +07 42 09.92881
 2018-Oct-22 12:11  m  06 55 59.284579 +07 42 10.01256
 2018-Oct-22 12:12  m  06 55 59.273719 +07 42 10.09625
 2018-Oct-22 12:13  m  06 55 59.262831 +07 42 10.17990
 2018-Oct-22 12:14  m  06 55 59.251914 +07 42 10.26350
